STARLINK-6181           
1 56888U 23083N   26096.96045663  .00001261  00000+0  87040-4 0  9995
2 56888  43.0012 286.4144 0000936 274.2284  85.8455 15.11075180155941
STARLINK-6169           
1 56889U 23083P   26096.92960074  .00003250  00000+0  13079-3 0  9994
2 56889  43.0011 285.3369 0001700 266.0834  93.9823 15.26745273155940
STARLINK-5528           
1 56890U 23083Q   26096.82869273 -.00002179  00000+0 -11503-3 0  9995
2 56890  43.0004 287.1461 0001094 265.3801  94.6919 15.11074194155922
STARLINK-6213           
1 56891U 23083R   26096.84898884  .00002252  00000+0  93606-4 0  9993
2 56891  43.0021 285.5929 0001703 269.0534  91.0122 15.26737744155946
STARLINK-6219           
1 56892U 23083S   26096.83654581  .00001235  00000+0  85547-4 0  9992
2 56892  43.0030 287.1993 0001833 268.6164  91.4471 15.11068929155929
STARLINK-6216           
1 56893U 23083T   26096.79425055  .00001791  00000+0  78295-4 0  9999
2 56893  43.0026 286.0412 0001760 268.3693  91.6957 15.25909733156050
STARLINK-6144           
1 56894U 23083U   26096.82771728  .00003180  00000+0  19964-3 0  9996
2 56894  43.0017 287.1366 0001266 275.1240  84.9461 15.11078041156044
STARLINK-6208           
1 56895U 23083V   26096.57830509  .00001484  00000+0  10012-3 0  9992
2 56895  43.0053 288.7014 0001927 268.8860  91.1765 15.11084469155882
STARLINK-6202           
1 56896U 23083W   26096.83577159  .00001071  00000+0  75884-4 0  9992
2 56896  43.0006 287.1932 0000757 259.6778 100.3982 15.11067887156036
STARLINK-6200           
1 56897U 23083X   26096.82711799  .00000645  00000+0  50871-4 0  9997
2 56897  43.0011 287.1309 0001126 265.7465  94.3252 15.11069480156047
STARLINK-6205           
1 56898U 23083Y   26096.56799374  .00001339  00000+0  59605-4 0  9999
2 56898  43.0011 284.3640 0000847 251.5261 108.5499 15.26735845156043
STARLINK-6203           
1 56899U 23083Z   26096.79669403  .00001150  00000+0  52524-4 0  9998
2 56899  43.0019 282.6484 0000593 267.0491  93.0292 15.26739138156075
STARLINK-6207           
1 56900U 23083AA  26097.17728748  .00003098  00000+0  12514-3 0  9999
2 56900  43.0013 269.9123 0000986 272.7961  87.2778 15.26741005156127
STARLINK-6185           
1 56901U 23083AB  26096.82402855  .00000506  00000+0  28530-4 0  9996
2 56901  43.0016 282.8453 0001328 252.4519 107.6187 15.26742618156083
STARLINK-6195           
1 56902U 23083AC  26097.19496048 -.00000778  00000+0 -19306-4 0  9999
2 56902  43.0013 270.0414 0001020 258.7312 101.3425 15.26750005156261
STARLINK-6192           
1 56903U 23083AD  26096.94251062  .00000734  00000+0  36202-4 0  9991
2 56903  43.0025 282.0146 0001304 273.6246  86.4456 15.27578622156101
STARLINK-6193           
1 56904U 23083AE  26097.17101486 -.00001003  00000+0 -27700-4 0  9997
2 56904  43.0004 269.8578 0001592 266.1304  93.9366 15.26745694156154
STARLINK-6183           
1 56905U 23083AF  26097.20315611  .00001083  00000+0  50062-4 0  9992
2 56905  43.0032 269.2556 0001894 264.0537  96.0098 15.26745183156166
STARLINK-6098           
1 56906U 23083AG  26097.00001156  .00050306  00000+0  18265-2 0  9996
2 56906  43.0006 270.5302 0002046 276.5451 350.5123 15.27555603  5803
STARLINK-6110           
1 56907U 23083AH  26096.81196217  .00001240  00000+0  55921-4 0  9993
2 56907  43.0016 271.4734 0002101 252.6852 107.3769 15.26746256156217
STARLINK-6186           
1 56908U 23083AJ  26096.95985983  .00001049  00000+0  48789-4 0  9996
2 56908  43.0003 270.8601 0001425 256.0562 104.0131 15.26744619156122
STARLINK-5999           
1 56909U 23083AK  26097.19409587  .00000135  00000+0  14730-4 0  9999
2 56909  43.0029 270.0328 0001833 267.7243  92.3399 15.26746570156265
STARLINK-6179           
1 56910U 23083AL  26097.16951909  .00000670  00000+0  33878-4 0  9996
2 56910  43.0016 269.8472 0001380 264.0321  96.0374 15.27581522156149
STARLINK-6116           
1 56911U 23083AM  26096.75428814  .00001676  00000+0  72162-4 0  9991
2 56911  43.0043 271.9038 0001948 274.3078  85.7551 15.26740365156092
STARLINK-5805           
1 56912U 23083AN  26096.76832964  .00000425  00000+0  25516-4 0  9990
2 56912  42.9999 271.9997 0001834 272.6602  87.4039 15.26754791156091
STARLINK-5950           
1 56913U 23083AP  26096.75077944  .00001235  00000+0  55699-4 0  9994
2 56913  43.0038 271.8749 0001728 277.5487  82.5168 15.26744998156096
STARLINK-5961           
1 56914U 23083AQ  26096.81173213  .00003438  00000+0  13436-3 0  9997
2 56914  43.0024 271.4643 0002048 267.2315  92.8302 15.27594493156103
STARLINK-5965           
1 56915U 23083AR  26096.75513079  .00001637  00000+0  70694-4 0  9998
2 56915  43.0020 271.9052 0001729 271.2560  88.8093 15.26743972156098
STARLINK-5973           
1 56916U 23083AS  26096.75172552  .00002540  00000+0  10434-3 0  9995
2 56916  43.0024 271.8743 0001774 270.7570  89.3078 15.26745897156068
STARLINK-5971           
1 56917U 23083AT  26097.16725433 -.00001673  00000+0 -52653-4 0  9992
2 56917  43.0020 269.8333 0001975 263.9495  96.1131 15.26752909156158
STARLINK-5951           
1 56918U 23083AU  26096.54993188  .00003770  00000+0  15010-3 0  9991
2 56918  43.0020 272.9388 0001693 267.4650  92.6008 15.26752600156065
STARLINK-5966           
1 56919U 23083AV  26096.79261418 -.00000643  00000+0 -14269-4 0  9997
2 56919  43.0018 271.3194 0001437 270.7846  89.2841 15.26744119156109
STARLINK-5960           
1 56920U 23083AW  26096.76132195  .00001276  00000+0  57239-4 0  9990
2 56920  42.9996 271.9414 0001376 266.5182  93.5512 15.26744260156091
STARLINK-5958           
1 56921U 23083AX  26096.81791983  .00001865  00000+0  79200-4 0  9999
2 56921  43.0021 271.5108 0002189 265.7620  94.2981 15.26747019156105
STARLINK-5937           
1 56922U 23083AY  26097.18575513  .00000833  00000+0  40726-4 0  9995
2 56922  43.0008 269.9600 0001393 271.2089  88.8603 15.26747768156152
STARLINK-5952           
1 56923U 23083AZ  26096.87434436  .00004774  00000+0  18756-3 0  9994
2 56923  43.0018 271.0723 0002169 269.1376  90.9227 15.26741544156119
STARLINK-5731           
1 56924U 23083BA  26097.17531301  .00003010  00000+0  12177-3 0  9991
2 56924  43.0013 269.8836 0001387 271.3011  88.7682 15.26763315156263
STARLINK-5733           
1 56925U 23083BB  26096.76623527  .00002586  00000+0  10604-3 0  9998
2 56925  43.0013 271.9794 0001711 272.3997  87.6659 15.26751447156092
STARLINK-5746           
1 56926U 23083BC  26097.16468941  .00002015  00000+0  84768-4 0  9991
2 56926  43.0007 269.8083 0001677 273.1285  86.9375 15.26746579156157
STARLINK-5808           
1 56927U 23083BD  26096.91792787  .00000348  00000+0  22650-4 0  9991
2 56927  43.0019 180.2407 0001185 278.3493  81.7224 15.26743600157169
OTTER PUP               
1 56933U 23084B   26096.95695146  .00350667  51599-4  83989-3 0  9991
2 56933  97.5723 256.0285 0003075 238.7096 121.3879 15.96536715157988
GEISAT PRECURSOR        
1 56934U 23084C   26097.18838696  .00009702  00000+0  30089-3 0  9997
2 56934  97.6112 235.9069 0005206 222.7836 137.3001 15.33618042156642
NUSAT-40 (C SHOEMAKER)  
1 56943U 23084M   26097.15040655  .00088578  00000+0  89284-3 0  9993
2 56943  97.4798 238.7176 0003996 164.2646 195.8738 15.65097222157668
NUSAT-41 (C PAYNE-G)    
1 56944U 23084N   26097.15756328  .00016238  00000+0  56120-3 0  9992
2 56944  97.5408 232.7780 0006780 206.3907 153.6988 15.29982689156922
GREGOIRE                
1 56946U 23084Q   26096.94618979  .00011348  00000+0  32096-3 0  9992
2 56946  97.6135 238.1819 0006765 202.7624 157.3320 15.36470430156761
ICEYE-X30               
1 56947U 23084R   26096.95109683  .00154460  00000+0  82056-3 0  9995
2 56947  97.5707 250.8158 0005171 218.5252 141.5647 15.80045881157670
BLACKJACK ACES-3        
1 56950U 23084U   26097.12594575  .00007608  00000+0  37594-3 0  9995
2 56950  97.6093 231.8386 0002064 222.9993 137.1080 15.18143089156383
RUNNER-1 (TYVAK-1005)   
1 56953U 23084X   26096.91001586  .00013557  00000+0  38428-3 0  9996
2 56953  97.6127 236.4281 0007839 200.3171 159.7761 15.36348551156659
BLACKJACK ACES-2        
1 56955U 23084Z   26097.13163850  .00009438  00000+0  46507-3 0  9996
2 56955  97.6092 231.9325 0002193 159.3283 200.8040 15.18168149156398
BLACKJACK ACES-1        
1 56956U 23084AA  26097.12064691  .00010384  00000+0  51106-3 0  9992
2 56956  97.6082 231.7018 0002115 141.6871 218.4513 15.18183217106114
ION SCV-011             
1 56957U 23084AB  26096.97048389  .00007116  00000+0  26240-3 0  9991
2 56957  98.1377 277.6900 0006078 287.8559  72.2015 15.28141419154930
GHOST-3                 
1 56958U 23084AC  26097.12658520  .00024631  00000+0  51400-3 0  9991
2 56958  97.6119 242.0613 0006937 186.9964 173.1189 15.45512326157034
ORBITER SN3             
1 56960U 23084AE  26097.16074264  .00010692  00000+0  33178-3 0  9999
2 56960  97.6160 235.7051 0007528 216.6710 143.4017 15.33555144156609
ICEYE-X26               
1 56961U 23084AF  26096.95531219  .00086683  00000+0  51723-3 0  9993
2 56961  97.5789 255.1484 0001182 194.2376 165.8856 15.77656694157959
TOMORROW-R2             
1 56962U 23084AG  26097.16103628  .00160298  00000+0  90188-3 0  9990
2 56962  97.5924 253.0743 0004092 170.2209 189.9138 15.78760497157776
ICEYE-X25               
1 56963U 23084AH  26097.19016331  .00061814  00000+0  92703-3 0  9997
2 56963  97.5802 238.9036 0004388 192.9539 167.1602 15.54717599156923
AFR-1                   
1 56964U 23084AJ  26097.18983545  .00006602  00000+0  24486-3 0  9994
2 56964  97.6158 232.2542 0009657 223.2396 136.8085 15.27918818156386
NUSAT-42 (M WONENBURGER)
1 56966U 23084AL  26097.18976478  .00029581  00000+0  68647-3 0  9991
2 56966  97.5621 238.4496 0006779 143.8828 216.2877 15.42318768157127
NUSAT-43 (R DIENG-KUNTZ)
1 56968U 23084AN  26097.18466781  .00254440  00000+0  10427-2 0  9990
2 56968  97.4389 241.6315 0002051 192.2768 167.8452 15.85389613158063
